STARLINK-36657          
1 67835U 26033Q   26054.66670139 -.01538200  00000+0 -55114-2 0  9996
2 67835  42.9994 357.4210 0001842 258.2398  50.1878 15.90767178  2419
STARLINK-36650          
1 67836U 26033R   26054.66670139 -.01532788  00000+0 -54385-2 0  9991
2 67836  42.9994 357.4147 0001818 262.2703  48.6890 15.90943605  2414
STARLINK-36649          
1 67837U 26033S   26054.66670139 -.01759594  84404-3 -53856-2 0  9994
2 67837  42.9996 357.4076 0001914 256.2492  57.5183 15.91105112  2411
STARLINK-36654          
1 67838U 26033T   26054.66670139 -.01755077  84136-3 -53268-2 0  9996
2 67838  42.9995 357.4006 0001882 258.4543  58.0262 15.91267372  2410
STARLINK-36652          
1 67839U 26033U   26054.66670139 -.01747481  83604-3 -52567-2 0  9997
2 67839  42.9995 357.3944 0001812 257.6330  61.2976 15.91439261  2415
STARLINK-36651          
1 67840U 26033V   26054.66670139 -.01742616  83303-3 -51985-2 0  9993
2 67840  42.9995 357.3879 0001839 260.7184  60.8646 15.91599522  2411
STARLINK-36656          
1 67841U 26033W   26054.66670139 -.01732017  82500-3 -51230-2 0  9999
2 67841  42.9996 357.3817 0001858 259.3560  64.6324 15.91762509  2410
STARLINK-36653          
1 67842U 26033X   26054.66670139 -.01726862  82171-3 -50666-2 0  9997
2 67842  42.9995 357.3749 0001914 256.0341  70.6383 15.91917573  2413
STARLINK-36589          
1 67843U 26033Y   26054.66670139 -.01731253  82693-3 -50357-2 0  9994
2 67843  42.9998 357.3685 0001877 260.7238  68.4789 15.92084759  2418
STARLINK-36598          
1 67844U 26033Z   26054.66670139 -.01713163  81228-3 -49417-2 0  9993
2 67844  42.9996 357.3627 0001912 256.8814  74.5689 15.92241859  2412
STARLINK-36606          
1 67845U 26033AA  26054.66670139 -.01704664  80614-3 -48753-2 0  9990
2 67845  42.9995 357.3570 0001863 257.1806  76.4611 15.92404481  2417
STARLINK-36658          
1 67846U 26033AB  26054.66670139 -.01694932  79888-3 -48080-2 0  9991
2 67846  42.9995 357.3512 0001889 260.9266  75.0974 15.92559100  2410
STARLINK-36618          
1 67847U 26033AC  26054.66670139 -.00187379  21883-4 -26066-3 0  9997
2 67847  42.9927 357.0475 0002364 249.8208 205.0668 16.04758113  2416
STARLINK-36660          
1 67848U 26033AD  26054.66670139 -.01687251  79343-3 -47469-2 0  9995
2 67848  42.9994 357.3452 0001850 256.5706  81.7291 15.92715450  2410
STARLINK-36602          
1 67849U 26033AE  26054.66670139 -.01687265  79469-3 -47072-2 0  9990
2 67849  42.9993 357.3392 0001917 257.2472  83.3546 15.92875294  2419
